{
  "type": "FeatureCollection",
  "features": [
    {
      "type": "Feature",
      "properties": {
        "norad_id": 66477,
        "name": "STARLINK-35354",
        "group": "last-30-days",
        "lat": -8.545285757432218,
        "lon": 85.14373965893229,
        "alt_km": 415.7825481765849,
        "timestamp": "2025-12-08T17:43:03.631632+00:00",
        "meta_object_name": "STARLINK-35354",
        "meta_object_id": "2025-262X",
        "meta_epoch": "2025-12-08T06:00:02.999808",
        "meta_mean_motion": 15.50507775,
        "meta_eccentricity": 0.00011972,
        "meta_inclination": 43.0004,
        "meta_ra_of_asc_node": 97.2792,
        "meta_arg_of_pericenter": 248.3894,
        "meta_mean_anomaly": 250.6651,
        "meta_ephemeris_type": 0,
        "meta_classification_type": "U",
        "meta_norad_cat_id": 66477,
        "meta_element_set_no": 999,
        "meta_rev_at_epoch": 491,
        "meta_bstar": 0.0020732245,
        "meta_mean_motion_dot": 0.00122899,
        "meta_mean_motion_ddot": 0,
        "tle_line1": "1 66477U 25262X   25342.25003472  .00122899  00000+0  20732-2 0  9992",
        "tle_line2": "2 66477  43.0004  97.2792 0001197 248.3894 250.6651 15.50507775  4916"
      },
      "geometry": {
        "type": "Point",
        "coordinates": [
          85.14373965893229,
          -8.545285757432218
        ]
      }
    },
    {
      "type": "Feature",
      "properties": {
        "norad_id": 66478,
        "name": "STARLINK-35283",
        "group": "last-30-days",
        "lat": -7.190912677325335,
        "lon": 86.63576139296627,
        "alt_km": 415.6852449120861,
        "timestamp": "2025-12-08T17:43:03.631643+00:00",
        "meta_object_name": "STARLINK-35283",
        "meta_object_id": "2025-262Y",
        "meta_epoch": "2025-12-08T06:00:02.999808",
        "meta_mean_motion": 15.50571245,
        "meta_eccentricity": 0.00014999,
        "meta_inclination": 43.0005,
        "meta_ra_of_asc_node": 97.2733,
        "meta_arg_of_pericenter": 262.5175,
        "meta_mean_anomaly": 238.5592,
        "meta_ephemeris_type": 0,
        "meta_classification_type": "U",
        "meta_norad_cat_id": 66478,
        "meta_element_set_no": 999,
        "meta_rev_at_epoch": 491,
        "meta_bstar": -0.00048010978,
        "meta_mean_motion_dot": -0.00028397,
        "meta_mean_motion_ddot": 0,
        "tle_line1": "1 66478U 25262Y   25342.25003472 -.00028397  00000+0 -48011-3 0  9994",
        "tle_line2": "2 66478  43.0005  97.2733 0001499 262.5175 238.5592 15.50571245  4910"
      },
      "geometry": {
        "type": "Point",
        "coordinates": [
          86.63576139296627,
          -7.190912677325335
        ]
      }
    },
    {
      "type": "Feature",
      "properties": {
        "norad_id": 66479,
        "name": "STARLINK-35581",
        "group": "last-30-days",
        "lat": -9.710738506376654,
        "lon": 83.84492236559356,
        "alt_km": 415.9492058717451,
        "timestamp": "2025-12-08T17:43:03.631655+00:00",
        "meta_object_name": "STARLINK-35581",
        "meta_object_id": "2025-262Z",
        "meta_epoch": "2025-12-08T06:00:02.999808",
        "meta_mean_motion": 15.50631707,
        "meta_eccentricity": 0.00012065,
        "meta_inclination": 43.0004,
        "meta_ra_of_asc_node": 97.2831,
        "meta_arg_of_pericenter": 254.4472,
        "meta_mean_anomaly": 242.8023,
        "meta_ephemeris_type": 0,
        "meta_classification_type": "U",
        "meta_norad_cat_id": 66479,
        "meta_element_set_no": 999,
        "meta_rev_at_epoch": 491,
        "meta_bstar": -0.00090533397,
        "meta_mean_motion_dot": -0.00053192,
        "meta_mean_motion_ddot": 0,
        "tle_line1": "1 66479U 25262Z   25342.25003472 -.00053192  00000+0 -90533-3 0  9992",
        "tle_line2": "2 66479  43.0004  97.2831 0001206 254.4472 242.8023 15.50631707  4912"
      },
      "geometry": {
        "type": "Point",
        "coordinates": [
          83.84492236559356,
          -9.710738506376654
        ]
      }
    },
    {
      "type": "Feature",
      "properties": {
        "norad_id": 66480,
        "name": "STARLINK-35670",
        "group": "last-30-days",
        "lat": -5.894297298835314,
        "lon": 88.05137407180122,
        "alt_km": 415.58490813166645,
        "timestamp": "2025-12-08T17:43:03.631666+00:00",
        "meta_object_name": "STARLINK-35670",
        "meta_object_id": "2025-262AA",
        "meta_epoch": "2025-12-08T06:00:02.999808",
        "meta_mean_motion": 15.5058074,
        "meta_eccentricity": 0.00015859,
        "meta_inclination": 43.0005,
        "meta_ra_of_asc_node": 97.2683,
        "meta_arg_of_pericenter": 261.8611,
        "meta_mean_anomaly": 241.1256,
        "meta_ephemeris_type": 0,
        "meta_classification_type": "U",
        "meta_norad_cat_id": 66480,
        "meta_element_set_no": 999,
        "meta_rev_at_epoch": 491,
        "meta_bstar": -0.00069858769,
        "meta_mean_motion_dot": -0.00041112,
        "meta_mean_motion_ddot": 0,
        "tle_line1": "1 66480U 25262AA  25342.25003472 -.00041112  00000+0 -69859-3 0  9990",
        "tle_line2": "2 66480  43.0005  97.2683 0001585 261.8611 241.1256 15.50580740  4917"
      },
      "geometry": {
        "type": "Point",
        "coordinates": [
          88.05137407180122,
          -5.894297298835314
        ]
      }
    },
    {
      "type": "Feature",
      "properties": {
        "norad_id": 66481,
        "name": "STARLINK-35698",
        "group": "last-30-days",
        "lat": -4.594593974985805,
        "lon": 89.46025157774058,
        "alt_km": 415.35020996309413,
        "timestamp": "2025-12-08T17:43:03.631679+00:00",
        "meta_object_name": "STARLINK-35698",
        "meta_object_id": "2025-262AB",
        "meta_epoch": "2025-12-08T06:00:02.999808",
        "meta_mean_motion": 15.50560535,
        "meta_eccentricity": 0.00016562,
        "meta_inclination": 43.0005,
        "meta_ra_of_asc_node": 97.2637,
        "meta_arg_of_pericenter": 265.8248,
        "meta_mean_anomaly": 239.0846,
        "meta_ephemeris_type": 0,
        "meta_classification_type": "U",
        "meta_norad_cat_id": 66481,
        "meta_element_set_no": 999,
        "meta_rev_at_epoch": 491,
        "meta_bstar": -0.00013822976,
        "meta_mean_motion_dot": -8.437e-05,
        "meta_mean_motion_ddot": 0,
        "tle_line1": "1 66481U 25262AB  25342.25003472 -.00008437  00000+0 -13823-3 0  9994",
        "tle_line2": "2 66481  43.0005  97.2637 0001656 265.8248 239.0846 15.50560535  4917"
      },
      "geometry": {
        "type": "Point",
        "coordinates": [
          89.46025157774058,
          -4.594593974985805
        ]
      }
    },
    {
      "type": "Feature",
      "properties": {
        "norad_id": 66482,
        "name": "STARLINK-35648",
        "group": "last-30-days",
        "lat": -3.293265445777014,
        "lon": 90.86239730828403,
        "alt_km": 415.2181057989783,
        "timestamp": "2025-12-08T17:43:03.631690+00:00",
        "meta_object_name": "STARLINK-35648",
        "meta_object_id": "2025-262AC",
        "meta_epoch": "2025-12-08T06:00:02.999808",
        "meta_mean_motion": 15.50551764,
        "meta_eccentricity": 0.00014596,
        "meta_inclination": 43.0004,
        "meta_ra_of_asc_node": 97.2588,
        "meta_arg_of_pericenter": 264.7905,
        "meta_mean_anomaly": 242.0321,
        "meta_ephemeris_type": 0,
        "meta_classification_type": "U",
        "meta_norad_cat_id": 66482,
        "meta_element_set_no": 999,
        "meta_rev_at_epoch": 476,
        "meta_bstar": 0.00023256692,
        "meta_mean_motion_dot": 0.00013312,
        "meta_mean_motion_ddot": 0,
        "tle_line1": "1 66482U 25262AC  25342.25003472  .00013312  00000+0  23257-3 0  9993",
        "tle_line2": "2 66482  43.0004  97.2588 0001459 264.7905 242.0321 15.50551764  4760"
      },
      "geometry": {
        "type": "Point",
        "coordinates": [
          90.86239730828403,
          -3.293265445777014
        ]
      }
    },
    {
      "type": "Feature",
      "properties": {
        "norad_id": 66483,
        "name": "STARLINK-35654",
        "group": "last-30-days",
        "lat": -1.9858425800347193,
        "lon": 92.26455016175193,
        "alt_km": 415.1640265546648,
        "timestamp": "2025-12-08T17:43:03.631700+00:00",
        "meta_object_name": "STARLINK-35654",
        "meta_object_id": "2025-262AD",
        "meta_epoch": "2025-12-08T06:00:02.999808",
        "meta_mean_motion": 15.50567701,
        "meta_eccentricity": 0.00015912,
        "meta_inclination": 43.0006,
        "meta_ra_of_asc_node": 97.2531,
        "meta_arg_of_pericenter": 263.324,
        "meta_mean_anomaly": 245.4178,
        "meta_ephemeris_type": 0,
        "meta_classification_type": "U",
        "meta_norad_cat_id": 66483,
        "meta_element_set_no": 999,
        "meta_rev_at_epoch": 491,
        "meta_bstar": -0.00033769018,
        "meta_mean_motion_dot": -0.00020094,
        "meta_mean_motion_ddot": 0,
        "tle_line1": "1 66483U 25262AD  25342.25003472 -.00020094  00000+0 -33769-3 0  9990",
        "tle_line2": "2 66483  43.0006  97.2531 0001591 263.3240 245.4178 15.50567701  4917"
      },
      "geometry": {
        "type": "Point",
        "coordinates": [
          92.26455016175193,
          -1.9858425800347193
        ]
      }
    }
  ]
}